{
  "norad_id": 60416,
  "name": "STARLINK-32197",
  "history": [
    {
      "epoch": "2026-03-28T20:42:22.126176Z",
      "apogee_km": 475.7784696158078,
      "perigee_km": 474.73387542845103,
      "latitude_deg": 6.218192278891122e-05,
      "longitude_deg": 6.86984681196549,
      "height_km": 476.34283900913306,
      "semi_major_axis_km": 6853.393172522129,
      "eccentricity": 7.621e-05,
      "inclination_deg": 53.159,
      "raan_deg": 143.7391,
      "arg_perigee_deg": 111.0937,
      "mean_anomaly_deg": 249.0146,
      "mean_motion_rev_day": 15.30186234
    }
  ]
}